[{"OBJECT_NAME":"ONEWEB-0319","OBJECT_ID":"2021-075AG","EPOCH":"2026-03-09T20:22:25.542336","MEAN_MOTION":13.17649349,"ECCENTRICITY":0.00014603,"INCLINATION":87.9152,"RA_OF_ASC_NODE":25.5944,"ARG_OF_PERICENTER":65.9592,"MEAN_ANOMALY":294.1692,"EPHEMERIS_TYPE":0,"CLASSIFICATION_TYPE":"U","NORAD_CAT_ID":49105,"ELEMENT_SET_NO":999,"REV_AT_EPOCH":22052,"BSTAR":-9.5675641e-5,"MEAN_MOTION_DOT":-2.4e-7,"MEAN_MOTION_DDOT":0},{"OBJECT_NAME":"SL-14 DEB","OBJECT_ID":"1991-056D","EPOCH":"2026-03-09T21:32:18.039264","MEAN_MOTION":13.1413297,"ECCENTRICITY":0.00159596,"INCLINATION":82.5663,"RA_OF_ASC_NODE":219.976,"ARG_OF_PERICENTER":150.8705,"MEAN_ANOMALY":209.3309,"EPHEMERIS_TYPE":0,"CLASSIFICATION_TYPE":"U","NORAD_CAT_ID":45267,"ELEMENT_SET_NO":999,"REV_AT_EPOCH":29118,"BSTAR":-0.00084230434,"MEAN_MOTION_DOT":-2.98e-6,"MEAN_MOTION_DDOT":0}]
